SL-14 R/B               
1 21423U 91042B   26032.36094108  .00000418  00000+0  49863-4 0  9998
2 21423  82.4906 254.2572 0017189   5.7220 354.4187 14.81794296847699
ERS-1                   
1 21574U 91050A   26032.48179398  .00000408  00000+0  14545-3 0  9999
2 21574  98.7895  49.8060 0031115 310.9738  48.8758 14.39417729810529
ARIANE 40 R/B           
1 21610U 91050F   26032.13338769  .00000353  00000+0  11810-3 0  9992
2 21610  98.2087  85.7282 0003369 164.4807 195.6488 14.42864649813729
INTERCOSMOS 25          
1 21819U 91086A   26032.32978306  .00000992  00000+0  19299-3 0  9998
2 21819  82.6091 331.9802 1486459 195.2753 159.8371 12.11901116492286
SL-8 R/B                
1 21876U 92008B   26032.16610303  .00000071  00000+0  58010-4 0  9991
2 21876  82.9278 294.9472 0033493 235.7185 289.1621 13.75968934704399
SL-8 R/B                
1 21938U 92020B   26032.46754852  .00000107  00000+0  94636-4 0  9999
2 21938  82.9319 180.6479 0029721  41.0155  17.7901 13.75543437696153
USA 81                  
1 21949U 92023A   26032.40247226  .00000230  00000+0  77834-4 0  9998
2 21949  85.0117 152.3632 0002421 109.4996 250.6458 14.32353243 89599
COSMOS 2219             
1 22219U 92076A   26032.44434536 -.00000235  00000+0 -98586-4 0  9997
2 22219  71.0594  93.8427 0020647 257.3147 102.5667 14.14078289713254
SL-16 R/B               
1 22220U 92076B   26032.07262235  .00000246  00000+0  14654-3 0  9996
2 22220  70.9986 265.5084 0012010 160.5475 349.2274 14.16851666716640
COSMOS 2221             
1 22236U 92080A   26032.25406575  .00002528  00000+0  22262-3 0  9994
2 22236  82.5068 313.9720 0013460 321.4047  38.6211 14.96043353775341
SL-16 R/B               
1 22285U 92093B   26032.48565296 -.00000213  00000+0 -84775-4 0  9992
2 22285  71.0209  80.2711 0004939 331.6424  28.4429 14.15442619708031
COSMOS 2228             
1 22286U 92094A   26032.36105466  .00001804  00000+0  15386-3 0  9996
2 22286  82.5170 272.0966 0019481  65.9537 294.3721 14.97020297770626
