CCSDS_OMM_VERS = 2.0
CREATION_DATE  = 
ORIGINATOR     = 

OBJECT_NAME    = SL-14 R/B
OBJECT_ID      = 1991-042B
CENTER_NAME    = EARTH
REF_FRAME      = TEME
TIME_SYSTEM    = UTC
MEAN_ELEMENT_THEORY = SGP/SGP4

EPOCH          = 2026-02-01T08:39:45.309312
MEAN_MOTION    = 14.81794296
ECCENTRICITY   = .0017189
INCLINATION    = 82.4906
RA_OF_ASC_NODE = 254.2572
ARG_OF_PERICENTER = 5.7220
MEAN_ANOMALY   = 354.4187

EPHEMERIS_TYPE = 0
CLASSIFICATION_TYPE = U
NORAD_CAT_ID   = 21423
ELEMENT_SET_NO = 999
REV_AT_EPOCH   = 84769
BSTAR          = .49863E-4
MEAN_MOTION_DOT = .418E-5
MEAN_MOTION_DDOT = 0

CCSDS_OMM_VERS = 2.0
CREATION_DATE  = 
ORIGINATOR     = 

OBJECT_NAME    = ERS-1
OBJECT_ID      = 1991-050A
CENTER_NAME    = EARTH
REF_FRAME      = TEME
TIME_SYSTEM    = UTC
MEAN_ELEMENT_THEORY = SGP/SGP4

EPOCH          = 2026-02-01T11:33:46.999872
MEAN_MOTION    = 14.39417729
ECCENTRICITY   = .0031115
INCLINATION    = 98.7895
RA_OF_ASC_NODE = 49.8060
ARG_OF_PERICENTER = 310.9738
MEAN_ANOMALY   = 48.8758

EPHEMERIS_TYPE = 0
CLASSIFICATION_TYPE = U
NORAD_CAT_ID   = 21574
ELEMENT_SET_NO = 999
REV_AT_EPOCH   = 81052
BSTAR          = .14545E-3
MEAN_MOTION_DOT = .408E-5
MEAN_MOTION_DDOT = 0

CCSDS_OMM_VERS = 2.0
CREATION_DATE  = 
ORIGINATOR     = 

OBJECT_NAME    = ARIANE 40 R/B
OBJECT_ID      = 1991-050F
CENTER_NAME    = EARTH
REF_FRAME      = TEME
TIME_SYSTEM    = UTC
MEAN_ELEMENT_THEORY = SGP/SGP4

EPOCH          = 2026-02-01T03:12:04.696416
MEAN_MOTION    = 14.42864649
ECCENTRICITY   = .0003369
INCLINATION    = 98.2087
RA_OF_ASC_NODE = 85.7282
ARG_OF_PERICENTER = 164.4807
MEAN_ANOMALY   = 195.6488

EPHEMERIS_TYPE = 0
CLASSIFICATION_TYPE = U
NORAD_CAT_ID   = 21610
ELEMENT_SET_NO = 999
REV_AT_EPOCH   = 81372
BSTAR          = .11810047E-3
MEAN_MOTION_DOT = .353E-5
MEAN_MOTION_DDOT = 0

CCSDS_OMM_VERS = 2.0
CREATION_DATE  = 
ORIGINATOR     = 

OBJECT_NAME    = INTERCOSMOS 25
OBJECT_ID      = 1991-086A
CENTER_NAME    = EARTH
REF_FRAME      = TEME
TIME_SYSTEM    = UTC
MEAN_ELEMENT_THEORY = SGP/SGP4

EPOCH          = 2026-02-01T07:54:53.256384
MEAN_MOTION    = 12.11901116
ECCENTRICITY   = .1486459
INCLINATION    = 82.6091
RA_OF_ASC_NODE = 331.9802
ARG_OF_PERICENTER = 195.2753
MEAN_ANOMALY   = 159.8371

EPHEMERIS_TYPE = 0
CLASSIFICATION_TYPE = U
NORAD_CAT_ID   = 21819
ELEMENT_SET_NO = 999
REV_AT_EPOCH   = 49228
BSTAR          = .19299E-3
MEAN_MOTION_DOT = .992E-5
MEAN_MOTION_DDOT = 0

CCSDS_OMM_VERS = 2.0
CREATION_DATE  = 
ORIGINATOR     = 

OBJECT_NAME    = SL-8 R/B
OBJECT_ID      = 1992-008B
CENTER_NAME    = EARTH
REF_FRAME      = TEME
TIME_SYSTEM    = UTC
MEAN_ELEMENT_THEORY = SGP/SGP4

EPOCH          = 2026-02-01T03:59:11.301792
MEAN_MOTION    = 13.75968934
ECCENTRICITY   = .00334936
INCLINATION    = 82.9278
RA_OF_ASC_NODE = 294.9472
ARG_OF_PERICENTER = 235.7185
MEAN_ANOMALY   = 289.1621

EPHEMERIS_TYPE = 0
CLASSIFICATION_TYPE = U
NORAD_CAT_ID   = 21876
ELEMENT_SET_NO = 999
REV_AT_EPOCH   = 70439
BSTAR          = .58010035E-4
MEAN_MOTION_DOT = .71E-6
MEAN_MOTION_DDOT = 0

CCSDS_OMM_VERS = 2.0
CREATION_DATE  = 
ORIGINATOR     = 

OBJECT_NAME    = SL-8 R/B
OBJECT_ID      = 1992-020B
CENTER_NAME    = EARTH
REF_FRAME      = TEME
TIME_SYSTEM    = UTC
MEAN_ELEMENT_THEORY = SGP/SGP4

EPOCH          = 2026-02-01T11:13:16.192128
MEAN_MOTION    = 13.75543437
ECCENTRICITY   = .0029721
INCLINATION    = 82.9319
RA_OF_ASC_NODE = 180.6479
ARG_OF_PERICENTER = 41.0155
MEAN_ANOMALY   = 17.7901

EPHEMERIS_TYPE = 0
CLASSIFICATION_TYPE = U
NORAD_CAT_ID   = 21938
ELEMENT_SET_NO = 999
REV_AT_EPOCH   = 69615
BSTAR          = .94636E-4
MEAN_MOTION_DOT = .107E-5
MEAN_MOTION_DDOT = 0

CCSDS_OMM_VERS = 2.0
CREATION_DATE  = 
ORIGINATOR     = 

OBJECT_NAME    = USA 81
OBJECT_ID      = 1992-023A
CENTER_NAME    = EARTH
REF_FRAME      = TEME
TIME_SYSTEM    = UTC
MEAN_ELEMENT_THEORY = SGP/SGP4

EPOCH          = 2026-02-01T09:39:33.603264
MEAN_MOTION    = 14.32353243
ECCENTRICITY   = .0002421
INCLINATION    = 85.0117
RA_OF_ASC_NODE = 152.3632
ARG_OF_PERICENTER = 109.4996
MEAN_ANOMALY   = 250.6458

EPHEMERIS_TYPE = 0
CLASSIFICATION_TYPE = U
NORAD_CAT_ID   = 21949
ELEMENT_SET_NO = 999
REV_AT_EPOCH   = 8959
BSTAR          = .77834E-4
MEAN_MOTION_DOT = .23E-5
MEAN_MOTION_DDOT = 0

CCSDS_OMM_VERS = 2.0
CREATION_DATE  = 
ORIGINATOR     = 

OBJECT_NAME    = COSMOS 2219
OBJECT_ID      = 1992-076A
CENTER_NAME    = EARTH
REF_FRAME      = TEME
TIME_SYSTEM    = UTC
MEAN_ELEMENT_THEORY = SGP/SGP4

EPOCH          = 2026-02-01T10:39:51.439104
MEAN_MOTION    = 14.14078289
ECCENTRICITY   = .0020647
INCLINATION    = 71.0594
RA_OF_ASC_NODE = 93.8427
ARG_OF_PERICENTER = 257.3147
MEAN_ANOMALY   = 102.5667

EPHEMERIS_TYPE = 0
CLASSIFICATION_TYPE = U
NORAD_CAT_ID   = 22219
ELEMENT_SET_NO = 999
REV_AT_EPOCH   = 71325
BSTAR          = -.98586E-4
MEAN_MOTION_DOT = -.235E-5
MEAN_MOTION_DDOT = 0

CCSDS_OMM_VERS = 2.0
CREATION_DATE  = 
ORIGINATOR     = 

OBJECT_NAME    = SL-16 R/B
OBJECT_ID      = 1992-076B
CENTER_NAME    = EARTH
REF_FRAME      = TEME
TIME_SYSTEM    = UTC
MEAN_ELEMENT_THEORY = SGP/SGP4

EPOCH          = 2026-02-01T01:44:34.571040
MEAN_MOTION    = 14.16851666
ECCENTRICITY   = .001201
INCLINATION    = 70.9986
RA_OF_ASC_NODE = 265.5084
ARG_OF_PERICENTER = 160.5475
MEAN_ANOMALY   = 349.2274

EPHEMERIS_TYPE = 0
CLASSIFICATION_TYPE = U
NORAD_CAT_ID   = 22220
ELEMENT_SET_NO = 999
REV_AT_EPOCH   = 71664
BSTAR          = .14654E-3
MEAN_MOTION_DOT = .246E-5
MEAN_MOTION_DDOT = 0

CCSDS_OMM_VERS = 2.0
CREATION_DATE  = 
ORIGINATOR     = 

OBJECT_NAME    = COSMOS 2221
OBJECT_ID      = 1992-080A
CENTER_NAME    = EARTH
REF_FRAME      = TEME
TIME_SYSTEM    = UTC
MEAN_ELEMENT_THEORY = SGP/SGP4

EPOCH          = 2026-02-01T06:05:51.280800
MEAN_MOTION    = 14.96043353
ECCENTRICITY   = .001346
INCLINATION    = 82.5068
RA_OF_ASC_NODE = 313.9720
ARG_OF_PERICENTER = 321.4047
MEAN_ANOMALY   = 38.6211

EPHEMERIS_TYPE = 0
CLASSIFICATION_TYPE = U
NORAD_CAT_ID   = 22236
ELEMENT_SET_NO = 999
REV_AT_EPOCH   = 77534
BSTAR          = .22262E-3
MEAN_MOTION_DOT = .2528E-4
MEAN_MOTION_DDOT = 0

CCSDS_OMM_VERS = 2.0
CREATION_DATE  = 
ORIGINATOR     = 

OBJECT_NAME    = SL-16 R/B
OBJECT_ID      = 1992-093B
CENTER_NAME    = EARTH
REF_FRAME      = TEME
TIME_SYSTEM    = UTC
MEAN_ELEMENT_THEORY = SGP/SGP4

EPOCH          = 2026-02-01T11:39:20.415744
MEAN_MOTION    = 14.15442619
ECCENTRICITY   = .0004939
INCLINATION    = 71.0209
RA_OF_ASC_NODE = 80.2711
ARG_OF_PERICENTER = 331.6424
MEAN_ANOMALY   = 28.4429

EPHEMERIS_TYPE = 0
CLASSIFICATION_TYPE = U
NORAD_CAT_ID   = 22285
ELEMENT_SET_NO = 999
REV_AT_EPOCH   = 70803
BSTAR          = -.84775E-4
MEAN_MOTION_DOT = -.213E-5
MEAN_MOTION_DDOT = 0

CCSDS_OMM_VERS = 2.0
CREATION_DATE  = 
ORIGINATOR     = 

OBJECT_NAME    = COSMOS 2228
OBJECT_ID      = 1992-094A
CENTER_NAME    = EARTH
REF_FRAME      = TEME
TIME_SYSTEM    = UTC
MEAN_ELEMENT_THEORY = SGP/SGP4

EPOCH          = 2026-02-01T08:39:55.122624
MEAN_MOTION    = 14.97020297
ECCENTRICITY   = .0019481
INCLINATION    = 82.5170
RA_OF_ASC_NODE = 272.0966
ARG_OF_PERICENTER = 65.9537
MEAN_ANOMALY   = 294.3721

EPHEMERIS_TYPE = 0
CLASSIFICATION_TYPE = U
NORAD_CAT_ID   = 22286
ELEMENT_SET_NO = 999
REV_AT_EPOCH   = 77062
BSTAR          = .15386E-3
MEAN_MOTION_DOT = .1804E-4
MEAN_MOTION_DDOT = 0

